ONEWEB-0573             
1 55152U 23004N   25336.13893477  .00000082  00000+0  17442-3 0  9998
2 55152  87.9171  14.6298 0001246  72.1751 287.9517 13.18684835143722
ONEWEB-0588             
1 55153U 23004P   25336.13234499  .00000079  00000+0  16810-3 0  9996
2 55153  87.9183  14.6245 0001340  92.1600 267.9685 13.18685307143727
ONEWEB-0598             
1 55154U 23004Q   25336.23829583  .00000406  00000+0  11091-2 0  9991
2 55154  87.8860  60.2958 0001751  82.6658 277.4669 13.11415972140086
ONEWEB-0599             
1 55155U 23004R   25336.27428819  .00000038  00000+0  64445-4 0  9997
2 55155  87.9125  45.0265 0001879  96.1871 263.9475 13.17648465141551
ONEWEB-0614             
1 55156U 23004S   25336.23321627  .00000562  00000+0  15511-2 0  9993
2 55156  87.8858  60.3060 0001430 114.1608 245.9670 13.11416862140025
ONEWEB-0616             
1 55157U 23004T   25336.24053951  .00000030  00000+0  43550-4 0  9993
2 55157  87.9131  45.0241 0002740  99.3730 260.7712 13.17648605141769
ONEWEB-0617             
1 55158U 23004U   25336.22134266  .00000503  00000+0  13839-2 0  9991
2 55158  87.8861  60.2874 0001286 104.1972 255.9299 13.11418599140044
ONEWEB-0618             
1 55159U 23004V   25336.22889015  .00010982  00000+0  66571-3 0  9995
2 55159  86.9086 257.4858 0011480 316.5792  43.4541 15.10400824152509
ONEWEB-0619             
1 55160U 23004W   25336.19666790 -.00000018  00000+0 -80540-4 0  9990
2 55160  87.9128  45.0070 0001943 114.6791 245.4543 13.17648328141653
ONEWEB-0620             
1 55161U 23004X   25336.21625552  .00000208  00000+0  55181-3 0  9996
2 55161  87.8863  60.3081 0001477  96.3707 263.7589 13.11419297140013
ONEWEB-0621             
1 55162U 23004Y   25336.24337721  .00000230  00000+0  61360-3 0  9999
2 55162  87.8870  60.2727 0001624 111.5651 248.5650 13.11416221139999
ONEWEB-0622             
1 55163U 23004Z   25336.24846339  .00000007  00000+0 -16627-4 0  9990
2 55163  87.8861  60.2817 0000966 121.0715 239.0508 13.11413941139987
ONEWEB-0623             
1 55164U 23004AA  25336.26754549  .00000061  00000+0  12407-3 0  9994
2 55164  87.9120  45.0433 0001379 128.5086 231.6170 13.17651316141650
ONEWEB-0624             
1 55165U 23004AB  25336.19408954 -.00000193  00000+0 -56706-3 0  9991
2 55165  87.8944  29.7595 0001570 108.9305 251.1995 13.12921539142229
ONEWEB-0625             
1 55166U 23004AC  25336.18147601  .00000064  00000+0  13090-3 0  9994
2 55166  87.9119  45.0551 0001871 101.3591 258.7751 13.17651290141632
ONEWEB-0626             
1 55167U 23004AD  25336.24729424  .00000032  00000+0  48370-4 0  9996
2 55167  87.9119  45.0420 0001691  84.4626 275.6698 13.17648143141640
ONEWEB-0627             
1 55168U 23004AE  25336.23548091  .00000018  00000+0  12521-4 0  9998
2 55168  87.9118  45.0448 0001331 117.5889 242.5378 13.17648760141643
