[{"OBJECT_NAME":"ONEWEB-0573","OBJECT_ID":"2023-004N","EPOCH":"2025-12-02T03:20:03.964128","MEAN_MOTION":13.18684835,"ECCENTRICITY":0.00012462,"INCLINATION":87.9171,"RA_OF_ASC_NODE":14.6298,"ARG_OF_PERICENTER":72.1751,"MEAN_ANOMALY":287.9517,"EPHEMERIS_TYPE":0,"CLASSIFICATION_TYPE":"U","NORAD_CAT_ID":55152,"ELEMENT_SET_NO":999,"REV_AT_EPOCH":14372,"BSTAR":0.00017441694,"MEAN_MOTION_DOT":8.2e-7,"MEAN_MOTION_DDOT":0},{"OBJECT_NAME":"ONEWEB-0588","OBJECT_ID":"2023-004P","EPOCH":"2025-12-02T03:10:34.607136","MEAN_MOTION":13.18685307,"ECCENTRICITY":0.000134,"INCLINATION":87.9183,"RA_OF_ASC_NODE":14.6245,"ARG_OF_PERICENTER":92.16,"MEAN_ANOMALY":267.9685,"EPHEMERIS_TYPE":0,"CLASSIFICATION_TYPE":"U","NORAD_CAT_ID":55153,"ELEMENT_SET_NO":999,"REV_AT_EPOCH":14372,"BSTAR":0.00016809814,"MEAN_MOTION_DOT":7.9e-7,"MEAN_MOTION_DDOT":0},{"OBJECT_NAME":"ONEWEB-0598","OBJECT_ID":"2023-004Q","EPOCH":"2025-12-02T05:43:08.759712","MEAN_MOTION":13.11415972,"ECCENTRICITY":0.00017512,"INCLINATION":87.886,"RA_OF_ASC_NODE":60.2958,"ARG_OF_PERICENTER":82.6658,"MEAN_ANOMALY":277.4669,"EPHEMERIS_TYPE":0,"CLASSIFICATION_TYPE":"U","NORAD_CAT_ID":55154,"ELEMENT_SET_NO":999,"REV_AT_EPOCH":14008,"BSTAR":0.001109061,"MEAN_MOTION_DOT":4.06e-6,"MEAN_MOTION_DDOT":0},{"OBJECT_NAME":"ONEWEB-0599","OBJECT_ID":"2023-004R","EPOCH":"2025-12-02T06:34:58.499616","MEAN_MOTION":13.17648465,"ECCENTRICITY":0.00018797,"INCLINATION":87.9125,"RA_OF_ASC_NODE":45.0265,"ARG_OF_PERICENTER":96.1871,"MEAN_ANOMALY":263.9475,"EPHEMERIS_TYPE":0,"CLASSIFICATION_TYPE":"U","NORAD_CAT_ID":55155,"ELEMENT_SET_NO":999,"REV_AT_EPOCH":14155,"BSTAR":6.4444788e-5,"MEAN_MOTION_DOT":3.8e-7,"MEAN_MOTION_DDOT":0},{"OBJECT_NAME":"ONEWEB-0614","OBJECT_ID":"2023-004S","EPOCH":"2025-12-02T05:35:49.885728","MEAN_MOTION":13.11416862,"ECCENTRICITY":0.000143,"INCLINATION":87.8858,"RA_OF_ASC_NODE":60.306,"ARG_OF_PERICENTER":114.1608,"MEAN_ANOMALY":245.967,"EPHEMERIS_TYPE":0,"CLASSIFICATION_TYPE":"U","NORAD_CAT_ID":55156,"ELEMENT_SET_NO":999,"REV_AT_EPOCH":14002,"BSTAR":0.0015510705,"MEAN_MOTION_DOT":5.62e-6,"MEAN_MOTION_DDOT":0},{"OBJECT_NAME":"ONEWEB-0616","OBJECT_ID":"2023-004T","EPOCH":"2025-12-02T05:46:22.613664","MEAN_MOTION":13.17648605,"ECCENTRICITY":0.00027408,"INCLINATION":87.9131,"RA_OF_ASC_NODE":45.0241,"ARG_OF_PERICENTER":99.373,"MEAN_ANOMALY":260.7712,"EPHEMERIS_TYPE":0,"CLASSIFICATION_TYPE":"U","NORAD_CAT_ID":55157,"ELEMENT_SET_NO":999,"REV_AT_EPOCH":14176,"BSTAR":4.3549967e-5,"MEAN_MOTION_DOT":3.0e-7,"MEAN_MOTION_DDOT":0},{"OBJECT_NAME":"ONEWEB-0617","OBJECT_ID":"2023-004U","EPOCH":"2025-12-02T05:18:44.005824","MEAN_MOTION":13.11418599,"ECCENTRICITY":0.00012868,"INCLINATION":87.8861,"RA_OF_ASC_NODE":60.2874,"ARG_OF_PERICENTER":104.1972,"MEAN_ANOMALY":255.9299,"EPHEMERIS_TYPE":0,"CLASSIFICATION_TYPE":"U","NORAD_CAT_ID":55158,"ELEMENT_SET_NO":999,"REV_AT_EPOCH":14004,"BSTAR":0.0013838578,"MEAN_MOTION_DOT":5.03e-6,"MEAN_MOTION_DDOT":0},{"OBJECT_NAME":"ONEWEB-0618","OBJECT_ID":"2023-004V","EPOCH":"2025-12-02T05:29:36.108960","MEAN_MOTION":15.10400824,"ECCENTRICITY":0.00114806,"INCLINATION":86.9086,"RA_OF_ASC_NODE":257.4858,"ARG_OF_PERICENTER":316.5792,"MEAN_ANOMALY":43.4541,"EPHEMERIS_TYPE":0,"CLASSIFICATION_TYPE":"U","NORAD_CAT_ID":55159,"ELEMENT_SET_NO":999,"REV_AT_EPOCH":15250,"BSTAR":0.00066571321,"MEAN_MOTION_DOT":0.00010982,"MEAN_MOTION_DDOT":0},{"OBJECT_NAME":"ONEWEB-0619","OBJECT_ID":"2023-004W","EPOCH":"2025-12-02T04:43:12.106560","MEAN_MOTION":13.17648328,"ECCENTRICITY":0.00019431,"INCLINATION":87.9128,"RA_OF_ASC_NODE":45.007,"ARG_OF_PERICENTER":114.6791,"MEAN_ANOMALY":245.4543,"EPHEMERIS_TYPE":0,"CLASSIFICATION_TYPE":"U","NORAD_CAT_ID":55160,"ELEMENT_SET_NO":999,"REV_AT_EPOCH":14165,"BSTAR":-8.0539545e-5,"MEAN_MOTION_DOT":-1.8e-7,"MEAN_MOTION_DDOT":0},{"OBJECT_NAME":"ONEWEB-0620","OBJECT_ID":"2023-004X","EPOCH":"2025-12-02T05:11:24.476928","MEAN_MOTION":13.11419297,"ECCENTRICITY":0.00014776,"INCLINATION":87.8863,"RA_OF_ASC_NODE":60.3081,"ARG_OF_PERICENTER":96.3707,"MEAN_ANOMALY":263.7589,"EPHEMERIS_TYPE":0,"CLASSIFICATION_TYPE":"U","NORAD_CAT_ID":55161,"ELEMENT_SET_NO":999,"REV_AT_EPOCH":14001,"BSTAR":0.00055181338,"MEAN_MOTION_DOT":2.08e-6,"MEAN_MOTION_DDOT":0},{"OBJECT_NAME":"ONEWEB-0621","OBJECT_ID":"2023-004Y","EPOCH":"2025-12-02T05:50:27.790944","MEAN_MOTION":13.11416221,"ECCENTRICITY":0.00016242,"INCLINATION":87.887,"RA_OF_ASC_NODE":60.2727,"ARG_OF_PERICENTER":111.5651,"MEAN_ANOMALY":248.565,"EPHEMERIS_TYPE":0,"CLASSIFICATION_TYPE":"U","NORAD_CAT_ID":55162,"ELEMENT_SET_NO":999,"REV_AT_EPOCH":13999,"BSTAR":0.00061359631,"MEAN_MOTION_DOT":2.3e-6,"MEAN_MOTION_DDOT":0},{"OBJECT_NAME":"ONEWEB-0622","OBJECT_ID":"2023-004Z","EPOCH":"2025-12-02T05:57:47.236896","MEAN_MOTION":13.11413941,"ECCENTRICITY":9.667e-5,"INCLINATION":87.8861,"RA_OF_ASC_NODE":60.2817,"ARG_OF_PERICENTER":121.0715,"MEAN_ANOMALY":239.0508,"EPHEMERIS_TYPE":0,"CLASSIFICATION_TYPE":"U","NORAD_CAT_ID":55163,"ELEMENT_SET_NO":999,"REV_AT_EPOCH":13998,"BSTAR":-1.6626883e-5,"MEAN_MOTION_DOT":7.0e-8,"MEAN_MOTION_DDOT":0},{"OBJECT_NAME":"ONEWEB-0623","OBJECT_ID":"2023-004AA","EPOCH":"2025-12-02T06:25:15.930336","MEAN_MOTION":13.17651316,"ECCENTRICITY":0.00013798,"INCLINATION":87.912,"RA_OF_ASC_NODE":45.0433,"ARG_OF_PERICENTER":128.5086,"MEAN_ANOMALY":231.617,"EPHEMERIS_TYPE":0,"CLASSIFICATION_TYPE":"U","NORAD_CAT_ID":55164,"ELEMENT_SET_NO":999,"REV_AT_EPOCH":14165,"BSTAR":0.00012406843,"MEAN_MOTION_DOT":6.1e-7,"MEAN_MOTION_DDOT":0},{"OBJECT_NAME":"ONEWEB-0624","OBJECT_ID":"2023-004AB","EPOCH":"2025-12-02T04:39:29.336256","MEAN_MOTION":13.12921539,"ECCENTRICITY":0.00015701,"INCLINATION":87.8944,"RA_OF_ASC_NODE":29.7595,"ARG_OF_PERICENTER":108.9305,"MEAN_ANOMALY":251.1995,"EPHEMERIS_TYPE":0,"CLASSIFICATION_TYPE":"U","NORAD_CAT_ID":55165,"ELEMENT_SET_NO":999,"REV_AT_EPOCH":14222,"BSTAR":-0.00056705504,"MEAN_MOTION_DOT":-1.93e-6,"MEAN_MOTION_DDOT":0},{"OBJECT_NAME":"ONEWEB-0625","OBJECT_ID":"2023-004AC","EPOCH":"2025-12-02T04:21:19.527264","MEAN_MOTION":13.1765129,"ECCENTRICITY":0.00018715,"INCLINATION":87.9119,"RA_OF_ASC_NODE":45.0551,"ARG_OF_PERICENTER":101.3591,"MEAN_ANOMALY":258.7751,"EPHEMERIS_TYPE":0,"CLASSIFICATION_TYPE":"U","NORAD_CAT_ID":55166,"ELEMENT_SET_NO":999,"REV_AT_EPOCH":14163,"BSTAR":0.00013089781,"MEAN_MOTION_DOT":6.4e-7,"MEAN_MOTION_DDOT":0},{"OBJECT_NAME":"ONEWEB-0626","OBJECT_ID":"2023-004AD","EPOCH":"2025-12-02T05:56:06.222336","MEAN_MOTION":13.17648143,"ECCENTRICITY":0.00016914,"INCLINATION":87.9119,"RA_OF_ASC_NODE":45.042,"ARG_OF_PERICENTER":84.4626,"MEAN_ANOMALY":275.6698,"EPHEMERIS_TYPE":0,"CLASSIFICATION_TYPE":"U","NORAD_CAT_ID":55167,"ELEMENT_SET_NO":999,"REV_AT_EPOCH":14164,"BSTAR":4.8369692e-5,"MEAN_MOTION_DOT":3.2e-7,"MEAN_MOTION_DDOT":0},{"OBJECT_NAME":"ONEWEB-0627","OBJECT_ID":"2023-004AE","EPOCH":"2025-12-02T05:39:05.550624","MEAN_MOTION":13.1764876,"ECCENTRICITY":0.00013319,"INCLINATION":87.9118,"RA_OF_ASC_NODE":45.0448,"ARG_OF_PERICENTER":117.5889,"MEAN_ANOMALY":242.5378,"EPHEMERIS_TYPE":0,"CLASSIFICATION_TYPE":"U","NORAD_CAT_ID":55168,"ELEMENT_SET_NO":999,"REV_AT_EPOCH":14164,"BSTAR":1.2520798e-5,"MEAN_MOTION_DOT":1.8e-7,"MEAN_MOTION_DDOT":0}]
